STARLINK-2172_new
1 17755C 21017AK  21326.12047083  .00005743  00000-0  38479-3 0  3265
2 17755  53.0535  48.2124 0001306  83.6233 152.5024 15.06392466    19
STARLINK-2172_old
1 27755C 21017AK  21325.12446544  .00004607  00000-0  30875-3 0  3258
2 27755  53.0540  52.6834 0001344  84.1690 147.6298 15.06382933    13
